EUTELSAT 21B            
1 38992U 12062B   26010.95485545  .00000144  00000+0  00000+0 0  9993
2 38992   0.0718  25.2125 0003118 270.4897 180.0964  1.00272941 48259
EUTELSAT 70B            
1 39020U 12069A   26010.92628973 -.00000029  00000+0  00000+0 0  9997
2 39020   0.0619 351.0097 0003780 276.2887 247.0953  1.00270852 47933
EUTELSAT 117 WEST A     
1 39122U 13012A   26010.64215368  .00000001  00000+0  00000+0 0  9997
2 39122   0.0380 285.4369 0002894  10.9034 288.1752  1.00271119 46855
EUTELSAT 7B             
1 39163U 13022A   26010.95199544  .00000062  00000+0  00000+0 0  9991
2 39163   0.0657  10.5933 0005493 321.7898 127.7873  1.00273250 46377
EXPRESS-AT1             
1 39612U 14010A   26010.96170216  .00000092  00000+0  00000+0 0  9997
2 39612   0.0322 234.6416 0000238  64.0357 214.0118  1.00275570 43241
EXPRESS-AT2             
1 39613U 14010B   26010.97833991 -.00000267  00000+0  00000+0 0  9990
2 39613   0.0155  14.0805 0000970 267.4651 320.9858  1.00271464 42927
EUTELSAT 3B             
1 39773U 14030A   26010.95121543  .00000034  00000+0  00000+0 0  9991
2 39773   0.0606 351.8829 0003527 251.0095 213.0966  1.00270628 42490
EUTELSAT 115 WEST B     
1 40425U 15010B   26009.19588786 -.00000017  00000+0  00000+0 0  9998
2 40425   0.0044 192.8405 0000257 257.8238 333.6936  1.00272609 39791
